COSMOS 1408 DEB         
1 49527U 82092Q   25052.60276694  .00119218  00000+0  40665-2 0  9996
2 49527  82.3553 134.0840 0165773 335.2992  24.0364 15.17750202172039
COSMOS 1408 DEB         
1 49537U 82092AA  25052.50145712  .00048667  00000+0  11413-2 0  9990
2 49537  82.5427  44.2410 0076800 259.6698  99.5883 15.38751880179947
COSMOS 1408 DEB         
1 50032U 82092RU  25052.27364893  .00007799  00000+0  18083-3 0  9991
2 50032  82.5667 359.4638 0016276 193.3439 166.7380 15.42076251180607
COSMOS 1408 DEB         
1 50058U 82092SW  25052.60564887  .00022653  00000+0  41708-3 0  9997
2 50058  82.6154  13.3638 0026016 102.4950 257.9214 15.48639588182318
COSMOS 1408 DEB         
1 50404U 82092ADS 25052.72925435  .00048921  00000+0  35016-2 0  9995
2 50404  82.2295 145.0208 0308204  93.9343 269.7155 14.73145302168146
COSMOS 1408 DEB         
1 50621U 82092ALR 25052.50263993  .00021593  00000+0  47484-3 0  9995
2 50621  82.5763  17.0629 0040235 143.6684 216.7308 15.42961597176930
COSMOS 1408 DEB         
1 50689U 82092APM 25052.51951204  .00552569  14486-3  78001-3 0  9997
2 50689  82.4936 338.7107 0010878  48.1089 312.1118 16.05603507177594
COSMOS 1408 DEB         
1 51184U 82092AZJ 25052.22601976  .00103142  00000+0  61290-3 0  9998
2 51184  82.4834 337.1923 0012369  47.7164 312.5148 15.77566995175342
COSMOS 1408 DEB         
1 51435U 82092BKH 25052.31553665  .00670075  19925-3  13480-2 0  9999
2 51435  82.5334  10.0613 0020348 137.2016 223.0851 15.99295186172795
COSMOS 1408 DEB         
1 52066U 82092BUU 25052.71114361  .00116992  00000+0  12259-2 0  9996
2 52066  82.4946  51.1508 0052825 310.5381  49.1281 15.62228074164583
